0 HAWK-5A
1 52757U 22057AB  26160.94814201  .00018459  00000-0  31770-3 0  9994
2 52757  97.6594 319.3311 0005941 100.5201 259.6720 15.51132826225225
0 HAWK-6B
1 55324U 23011A   26161.10072262  .00004153  00000-0  18175-3 0  9990
2 55324  40.4991  33.4028 0003609 322.2576  37.7979 15.22865339186767
0 HAWK-6C
1 55326U 23011C   26160.37868959  .00004206  00000-0  18395-3 0  9999
2 55326  40.4982  34.4522 0004314 308.3612  51.6810 15.22867772186660
0 HAWK-6A
1 55327U 23011D   26161.10010640  .00004263  00000-0  18631-3 0  9994
2 55327  40.4993  31.8686 0003853 309.2271  50.8196 15.22867328186770
0 HAWK-7A
1 56191U 23054P   26160.96910145  .00001488  00000-0  58357-4 0  9999
2 56191  97.2724  48.4915 0004539  77.9623 282.2125 15.27279134175928
0 HAWK-7B
1 56193U 23054R   26161.62419189  .00005207  00000-0  19743-3 0  9995
2 56193  97.2741  47.3901 0003993  81.9328 278.2364 15.27294701176021
0 HAWK-7C
1 56200U 23054Y   26161.62408383  .00005151  00000-0  19535-3 0  9995
2 56200  97.2718  48.1606 0004034  73.6581 286.5102 15.27291510176028
